CZ-4B R/B               
1 28059U 03049C   18147.26752632  .00000001  00000-0  12156-4 0  9994
2 28059  98.5230  44.2783 0048965 277.5393 190.5871 14.52527443773633
CZ-2C R/B               
1 28222U 04012C   18147.29935458  .00000455  00000-0  31505-4 0  9991
2 28222  97.5736 103.4458 0049497  86.2401  46.9255 15.09712039772480
SL-16 R/B               
1 28353U 04021B   18147.26117667  .00000230  00000-0  14572-3 0  9992
2 28353  71.0022  76.8727 0004221  13.9204 346.2033 14.14212990720799
CZ-2C R/B               
1 28480U 04046B   18147.20951076  .00000007  00000-0  18511-4 0  9994
2 28480  98.1764 226.0009 0140752 289.3202 122.2097 14.25673585703237
ARIANE 5 R/B            
1 28499U 04049H   18147.27943302  .00000047  00000-0  13251-4 0  9997
2 28499  98.0585 236.8881 0092316 183.3689 242.8382 14.79901360724848
CZ-2D R/B               
1 28738U 05024B   18147.08304936  .00000161  00000-0  13222-4 0  9995
2 28738  97.4554 181.4366 0010516 258.8690 101.1358 15.11535646707756
SUZAKU (ASTRO-EII)      
1 28773U 05025A   18147.23722898  .00000772  00000-0  34201-4 0  9991
2 28773  31.3819 224.0051 0004604 204.5091 155.5338 15.16543364709636
ALOS (DAICHI)           
1 28931U 06002A   18147.43022691  .00000123  00000-0  32930-4 0  9996
2 28931  97.8205 162.0936 0001227  44.5395 315.5911 14.62493472657774
H-2A R/B                
1 28932U 06002B   18147.24768791  .00000004  00000-0  69803-5 0  9992
2 28932  98.2319  89.4915 0087973 264.0576 230.0082 14.91714698668980
AKARI (ASTRO-F)         
1 28939U 06005A   18147.24054588  .00002324  00000-0  69459-4 0  9997
2 28939  98.2116  30.3461 0103257  71.1535 290.0868 15.30714106665690
RESURS-DK 1             
1 29228U 06021A   18147.48963721  .00000043  00000-0  10595-4 0  9994
2 29228  69.9352 301.9793 0005347 208.4865 151.6005 15.02322474659809
GENESIS 1               
1 29252U 06029A   18147.25696826  .00000292  00000-0  24689-4 0  9998
2 29252  64.5035 241.2796 0047143 289.7933  69.8110 15.17304025653946
CZ-4B R/B               
1 29507U 06046C   18147.24265041  .00000577  00000-0  50073-4 0  9992
2 29507  97.7783 160.0125 0046476 165.9581 194.2947 15.00272169632575
CZ-2C R/B               
1 31114U 07010B   18147.23526753 -.00000020  00000-0  10093-4 0  9992
2 31114  98.3647  36.2867 0058701 297.0498  62.4696 14.19272283576304
COSMO-SKYMED 1          
1 31598U 07023A   18147.47754065  .00000296  00000-0  43732-4 0  9997
2 31598  97.8938 331.3308 0001225  99.0843 261.0528 14.82149009593443
GENESIS 2               
1 31789U 07028A   18147.20616605  .00000339  00000-0  27597-4 0  9991
2 31789  64.5039 280.6699 0014411 326.8327  33.1890 15.16550484601076
COSMOS 2428             
1 31792U 07029A   18147.47236665  .00000257  00000-0  16450-3 0  9993
2 31792  70.9633  49.9383 0006874 141.6874 218.4736 14.12522651562681
SL-16 R/B               
1 31793U 07029B   18147.09750244  .00000170  00000-0  11377-3 0  9993
2 31793  70.9762  26.7650 0002129 275.4441 234.4829 14.14396625563347
KORONAS-FOTON           
1 33504U 09003A   18147.27877505  .00000227  00000-0  10368-4 0  9992
2 33504  82.4438 250.9528 0019337   5.5478 354.5964 15.15169685513472
H-2A R/B                
1 38341U 12025E   18147.25589176  .00000150  00000-0  25104-4 0  9995
2 38341  98.4195 248.1433 0056820 130.5642 230.0536 14.83754447325819
CUSAT 2 & FALCON 9 R/B  
1 39271U 13055G   18147.56052451  .00001902  00000-0  48064-4 0  9993
2 39271  80.9670 351.6303 0615281 260.1945  92.9281 14.41306435242162
ALOS-2                  
1 39766U 14029A   18147.43380958 -.00000068  00000-0 -22057-5 0  9995
2 39766  97.9209 244.8160 0001704  86.4837 273.6563 14.79471413216509
SL-27 R/B               
1 40354U 14084B   18147.19019340  .00000797  00000-0  21451-4 0  9991
2 40354  74.7371 143.0173 0039207 349.5957  10.4438 15.39035030192369
ASTRO-H (HITOMI)        
1 41337U 16012A   18147.19572811  .00000236  00000-0  12285-4 0  9996
2 41337  31.0055  98.6212 0012503 198.8433 161.1740 14.98468057124569
TIANGONG-2              
1 41765U 16057A   18147.32714806  .00003428  00000-0  43561-4 0  9994
2 41765  42.7855 107.2591 0002300 119.0278  36.0360 15.61350383 96721
SHENZHOU-11 MODULE      
1 41868U 16061G   18147.19606285  .00007170  00000-0  56675-4 0  9997
2 41868  42.7942  79.1887 0002288 276.7065 236.1818 15.71917889 86975
